{"type":"FeatureCollection","features":[{"type":"Feature","properties":{"shapeName":"Ban Pong","shapeISO":"","shapeID":"78962969B74786164204095","shapeGroup":"THA","shapeType":"ADM2","source":"Royal Thai Survey Department, OCHA ROAP via geoBoundaries","sourceYear":"2019","license":"CC BY 3.0 IGO"},"geometry":{"type":"Polygon","coordinates":[[[99.92702629000007,13.933968390000075],[99.91590867400004,13.938148822000073],[99.90156850100004,13.940203436000047],[99.88533764100004,13.950405927000077],[99.88210047100006,13.949768475000042],[99.87773473500005,13.955820974000062],[99.87586105300005,13.961235181000063],[99.87610616700005,13.959211983000046],[99.87422245600004,13.957693995000056],[99.87925125500004,13.950605960000075],[99.87712926300009,13.949359900000047],[99.87798173800007,13.947579890000043],[99.87499252600009,13.945563039000035],[99.86736195300006,13.934983474000035],[99.86003251400007,13.921519063000062],[99.86015333600005,13.919181200000025],[99.85854394900008,13.919629094000072],[99.85679114700008,13.91661556500003],[99.85423546700008,13.915886034000039],[99.85385080700007,13.908788467000022],[99.85010645400007,13.907113957000035],[99.84880821300004,13.904137552000066],[99.84842806200004,13.896166523000034],[99.84440854500008,13.893775638000022],[99.84544636000004,13.884974137000029],[99.83808815600008,13.87402559900005],[99.83673089100006,13.865659212000025],[99.82789543200005,13.86942818600005],[99.82007420800005,13.864574725000068],[99.82123521400007,13.857806292000078],[99.81799997500008,13.85704342300005],[99.81693869100008,13.852894985000034],[99.82086045500006,13.849980229000039],[99.81670619800008,13.845739773000048],[99.81608707600009,13.83631151700007],[99.81433798000006,13.83258885400005],[99.81912851200008,13.826472458000069],[99.81552064700008,13.823059535000027],[99.80871428200004,13.825431366000032],[99.80505121900006,13.823914880000075],[99.80213855500006,13.825778723000042],[99.80092272300004,13.82506692000004],[99.80315286100006,13.820815800000048],[99.80523978200006,13.821478532000071],[99.80707235400007,13.819156166000027],[99.81204287200006,13.817076496000027],[99.81131947600005,13.810697142000038],[99.80898002500004,13.809392648000028],[99.80629118100006,13.810157598000046],[99.80534137500007,13.807997212000032],[99.80233387300007,13.807263439000053],[99.80202251000009,13.811179880000054],[99.79587307300005,13.81848375800007],[99.78911583900003,13.81847098000003],[99.78562243800008,13.821576225000058],[99.77930554300008,13.82327643900004],[99.77595881600007,13.823377149000066],[99.77072401200007,13.821117688000072],[99.76559181500005,13.824311135000073],[99.76381038100004,13.823266595000064],[99.75888469400007,13.824254996000036],[99.74715421800005,13.819817627000077],[99.74582133100006,13.822786490000055],[99.74256252600009,13.823101698000073],[99.74172624900007,13.825647692000075],[99.73547890800006,13.825843779000024],[99.73026468500007,13.828137310000045],[99.72990935600006,13.82700350500005],[99.72765080300007,13.82789841500005],[99.72419457400008,13.825394308000057],[99.71823719000008,13.823971715000027],[99.70924008400004,13.825456289000044],[99.70775123200008,13.827990100000022],[99.70429599500005,13.828524153000046],[99.70024076700008,13.833752101000073],[99.69619809700004,13.836195367000073],[99.68700504500003,13.839501126000073],[99.67111852200009,13.841014250000057],[99.66627356800007,13.846297271000026],[99.65811995200005,13.838221805000046],[99.65332651400007,13.836874935000026],[99.65436388200004,13.83131677700004],[99.65277997400005,13.831582323000077],[99.65013564400004,13.827411313000027],[99.64109515700005,13.822611623000057],[99.63615174000006,13.815441068000041],[99.63745232900004,13.813212693000025],[99.63348369200008,13.810217527000077],[99.63084647100004,13.80562391500007],[99.62533264500007,13.806347093000056],[99.61729707600006,13.80011104600004],[99.61563747700006,13.80234408800004],[99.61216488700006,13.801199649000068],[99.60641461100005,13.795518733000051],[99.61282755900004,13.796372308000059],[99.61352729100008,13.794034002000046],[99.61695015100008,13.793875171000025],[99.62100205500008,13.790416295000057],[99.63084815700006,13.792487196000025],[99.63252902000005,13.787476738000066],[99.63575732300006,13.786562802000049],[99.63737273000004,13.788505403000045],[99.63863939300006,13.786975349000045],[99.64041337200007,13.788372281000022],[99.64082498800008,13.78688650600003],[99.64258182300006,13.788858158000039],[99.64506968300009,13.789064496000037],[99.64863040400007,13.787466240000072],[99.64965982400008,13.784947662000036],[99.65562873500005,13.78698707500007],[99.65984121000008,13.78116791900004],[99.66580803000005,13.781478195000034],[99.66946068600004,13.779657941000039],[99.67526012400003,13.78175432300003],[99.67689060800006,13.78034304700003],[99.67722018300003,13.782080147000045],[99.68211201400004,13.782637489000024],[99.68285925300006,13.784212840000066],[99.68566342800005,13.784079357000053],[99.68847662400003,13.786440033000076],[99.68915956000006,13.784746075000044],[99.69260358400004,13.78452356300005],[99.69251051500004,13.782592039000065],[99.70128178400006,13.780521500000077],[99.70161954800005,13.777027089000057],[99.71353422600004,13.773992116000045],[99.71704506700007,13.770351120000043],[99.72968578500007,13.768068313000072],[99.73333093500008,13.768837095000038],[99.73620736000004,13.765534625000043],[99.74106680300008,13.763330520000068],[99.74252315700005,13.760174793000033],[99.74439368000009,13.761447347000058],[99.74719570200006,13.760881888000029],[99.74919549200007,13.759809494000024],[99.74854112000008,13.758317156000032],[99.75538386300008,13.75798887600007],[99.75533013400008,13.755431266000073],[99.76593139400006,13.754361902000028],[99.77344919300003,13.751569222000057],[99.79153788400004,13.750396138000042],[99.79225791100004,13.751871832000063],[99.79704618300008,13.752910328000041],[99.79470359800007,13.758468746000062],[99.78428574800006,13.762670982000031],[99.78502438300006,13.764407636000044],[99.78645646700005,13.764006608000045],[99.79072637200005,13.766910475000032],[99.79584362700007,13.765928096000039],[99.79736270800004,13.76362023200005],[99.79903968300005,13.764373797000076],[99.80689068200007,13.762373232000073],[99.81038516400008,13.760160466000059],[99.81265448400006,13.760989184000039],[99.81533989100006,13.758666609000045],[99.81528071300005,13.755190494000033],[99.81808292300008,13.75445297400006],[99.82537381300006,13.755040176000023],[99.82845477900008,13.759616166000058],[99.83193949600007,13.76043379600003],[99.83308359200004,13.759616707000077],[99.82967274000003,13.757274305000067],[99.82685148100006,13.751647258000048],[99.82930839700003,13.748863720000031],[99.83468114400006,13.749180357000057],[99.83834976900005,13.747287072000063],[99.84231090800006,13.751747691000048],[99.84199593800008,13.756809051000062],[99.85519210700005,13.756058116000077],[99.85593967600005,13.759742617000029],[99.85855008000004,13.759012830000074],[99.86019260200004,13.756316496000068],[99.86747802400004,13.75313310200005],[99.86967145900007,13.75372236000004],[99.87200291400006,13.74886317000005],[99.88349309700004,13.749142231000064],[99.88534387800007,13.755310780000059],[99.88768634900003,13.754480668000042],[99.88967492200004,13.75984627500003],[99.88834984800008,13.761600226000041],[99.91696865600005,13.765744116000064],[99.92044189200004,13.763522980000062],[99.92463395200008,13.766585324000062],[99.92579107700004,13.76597350000003],[99.92641680000008,13.767953308000074],[99.93077355000008,13.767392374000053],[99.93792437800005,13.769773061000024],[99.94504890100006,13.770052239000051],[99.95192707300004,13.773561460000053],[99.95219521900003,13.778214697000067],[99.95495610000006,13.783880680000038],[99.95485967900004,13.790194857000074],[99.95597400300005,13.790550367000037],[99.95487826600004,13.79529083600005],[99.96676012800003,13.796839513000066],[99.96967969100007,13.798390009000059],[99.97064063800008,13.803555776000053],[99.96867430600008,13.80549641400006],[99.97065475500006,13.80835928600004],[99.96996848200007,13.810415627000054],[99.96630311700005,13.812807273000033],[99.96269767200005,13.812845259000028],[99.96347218200003,13.820840689000022],[99.96078213700008,13.823871836000023],[99.96339602300009,13.824997991000032],[99.96426190600005,13.827019044000053],[99.96258693700008,13.832132957000056],[99.95908835100005,13.833928705000062],[99.95859143700005,13.836248709000074],[99.95411938000007,13.832539741000062],[99.95153961700004,13.833055161000061],[99.94842569200006,13.830327840000052],[99.94200685100009,13.829863385000067],[99.94125577200003,13.83144184300005],[99.93960556400003,13.830927216000077],[99.93566084900004,13.833794856000054],[99.93539356900004,13.835244393000039],[99.93802140400004,13.837159350000036],[99.93793170000004,13.839920125000049],[99.93320761800004,13.84306448500007],[99.92654546000006,13.842746815000055],[99.92054565100005,13.845735260000026],[99.91352153300005,13.843349196000077],[99.91107793300006,13.845096875000024],[99.91115538800005,13.847142506000068],[99.90924117000009,13.84732049300004],[99.90434385200007,13.84257314100006],[99.90487219500005,13.841116710000051],[99.90088998600004,13.841629012000055],[99.91269376900004,13.871371216000057],[99.91147182400005,13.875729764000027],[99.90954473500005,13.876616979000062],[99.90991555400007,13.878227216000028],[99.90480235500007,13.882540017000053],[99.90690413600004,13.88798244000003],[99.91491732200006,13.897735563000026],[99.91927433200004,13.898589893000064],[99.92309226300006,13.897487119000061],[99.92808690900006,13.910064243000022],[99.92248710000007,13.910753914000054],[99.91666915800005,13.91351749200004],[99.92402007700008,13.919236601000023],[99.92702629000007,13.933968390000075]]]}}]}